[{"OBJECT_NAME":"STARLINK-6049","OBJECT_ID":"2023-078AF","EPOCH":"2026-03-09T22:18:23.025888","MEAN_MOTION":14.98326107,"ECCENTRICITY":0.00025054,"INCLINATION":70.0006,"RA_OF_ASC_NODE":343.9548,"ARG_OF_PERICENTER":263.0941,"MEAN_ANOMALY":96.9933,"EPHEMERIS_TYPE":0,"CLASSIFICATION_TYPE":"U","NORAD_CAT_ID":56796,"ELEMENT_SET_NO":999,"REV_AT_EPOCH":15271,"BSTAR":2.6098056e-5,"MEAN_MOTION_DOT":2.18e-6,"MEAN_MOTION_DDOT":0},{"OBJECT_NAME":"ELECTRON KICK STAGE R\/B","OBJECT_ID":"2022-079C","EPOCH":"2026-03-09T00:14:21.573024","MEAN_MOTION":14.9984674,"ECCENTRICITY":0.00071286,"INCLINATION":40.0139,"RA_OF_ASC_NODE":71.1393,"ARG_OF_PERICENTER":266.8926,"MEAN_ANOMALY":93.1051,"EPHEMERIS_TYPE":0,"CLASSIFICATION_TYPE":"U","NORAD_CAT_ID":53104,"ELEMENT_SET_NO":999,"REV_AT_EPOCH":10032,"BSTAR":0.00071833394,"MEAN_MOTION_DOT":8.922e-5,"MEAN_MOTION_DDOT":0}]
